norad_id,name,regime,epoch,line1,line2,inclination,eccentricity,mean_motion,raan,arg_pericenter,mean_anomaly
36395,SDO,IGO,12008.33657737,1 36395U 10005A   12008.33657737 -.00000019  00000-0  00000+0 0  4179\,2 36395 027.8494 177.0080 0001621 324.8279 344.9574 01.00271939  7173,27.8494,0.0001621,1.00271939,177.008,324.8279,344.9574
36395,SDO,IGO,12009.43374231,1 36395U 10005A   12009.43374231 -.00000025  00000-0  00000+0 0  4184\,2 36395 027.8493 176.9880 0001646 325.2400 020.6258 01.00271896  7186,27.8493,0.0001646,1.00271896,176.988,325.24,20.6258
36395,SDO,IGO,12010.37294198,1 36395U 10005A   12010.37294198 -.00000028 +00000-0 +00000-0 0 04210\,2 36395 027.8493 176.9708 0001660 325.0816 359.8375 01.00271840007197,27.8493,0.000166,1.0027184,176.9708,325.0816,359.8375
36395,SDO,IGO,12011.22882517,1 36395U 10005A   12011.22882517 -.00000030  00000-0  00000+0 0  4192\,2 36395 027.8491 176.9549 0001583 317.3860 316.5086 01.00271846  7202,27.8491,0.0001583,1.00271846,176.9549,317.386,316.5086
36395,SDO,IGO,12011.43976634,1 36395U 10005A   12011.43976634 -.00000030 +00000-0 +00000-0 0 04213\,2 36395 027.8491 176.9514 0001564 317.3312 032.7131 01.00271830007206,27.8491,0.0001564,1.0027183,176.9514,317.3312,32.7131
36395,SDO,IGO,12012.39308214,1 36395U 10005A   12012.39308214 -.00000030  00000-0  00000+0 0  4200\,2 36395 027.8491 176.9339 0001580 318.1030 016.0901 01.00271766  7214,27.8491,0.000158,1.00271766,176.9339,318.103,16.0901
36395,SDO,IGO,12013.42923822,1 36395U 10005A   12013.42923822 -.00000029  00000-0  00000+0 0  4212\,2 36395 027.8491 176.9150 0001532 316.6923 031.5540 01.00271691  7225,27.8491,0.0001532,1.00271691,176.915,316.6923,31.554
36395,SDO,IGO,12014.51379350,1 36395U 10005A   12014.51379350 -.00000026  00000-0  00000+0 0  4222\,2 36395 027.8489 176.8949 0001514 313.7914 065.9808 01.00271630  7248,27.8489,0.0001514,1.0027163,176.8949,313.7914,65.9808
36395,SDO,IGO,12015.57641421,1 36395U 10005A   12015.57641421 -.00000025  00000-0  00000+0 0  4230\,2 36395 027.8488 176.8753 0001509 312.2030 091.1759 01.00271551  7256,27.8488,0.0001509,1.00271551,176.8753,312.203,91.1759
36395,SDO,IGO,12016.53340931,1 36395U 10005A   12016.53340931 -.00000024 +00000-0 +00000-0 0 04240\,2 36395 027.8486 176.8577 0001483 310.7843 078.0711 01.00271504007265,27.8486,0.0001483,1.00271504,176.8577,310.7843,78.0711
36395,SDO,IGO,12019.15328785,1 36395U 10005A   12019.15328785 -.00000036  00000-0  00000+0 0  4246\,2 36395 027.8485 176.8101 0001606 311.1339 303.4945 01.00271236  7287,27.8485,0.0001606,1.00271236,176.8101,311.1339,303.4945
36395,SDO,IGO,12019.46626307,1 36395U 10005A   12019.46626307 -.00000038 +00000-0 +00000-0 0 04255\,2 36395 027.8486 176.8044 0001600 310.9782 056.6323 01.00271169007290,27.8486,0.00016,1.00271169,176.8044,310.9782,56.6323
36395,SDO,IGO,12020.23451431,1 36395U 10005A   12020.23451431 -.00000044  00000-0  00000+0 0  4252\,2 36395 027.8486 176.7901 0001713 318.4673 326.4814 01.00271069  7290,27.8486,0.0001713,1.00271069,176.7901,318.4673,326.4814
36395,SDO,IGO,12020.41662840,1 36395U 10005A   12020.41662840 -.00000045 +00000-0 +00000-0 0 04263\,2 36395 027.8486 176.7867 0001696 318.8649 031.8262 01.00271035007295,27.8486,0.0001696,1.00271035,176.7867,318.8649,31.8262
36395,SDO,IGO,12021.52259036,1 36395U 10005A   12021.52259036 -.00000053 +00000-0 +00000-0 0 04264\,2 36395 027.8485 176.7662 0001641 318.0350 071.9059 01.00270931007314,27.8485,0.0001641,1.00270931,176.7662,318.035,71.9059
36395,SDO,IGO,12022.47771383,1 36395U 10005A   12022.47771383 -.00000058 +00000-0 +00000-0 0 04303\,2 36395 027.8484 176.7481 0001627 318.9807 055.7582 01.00270844007327,27.8484,0.0001627,1.00270844,176.7481,318.9807,55.7582
36395,SDO,IGO,12023.57926733,1 36395U 10005A   12023.57926733 -.00000060 +00000-0 +00000-0 0 04275\,2 36395 027.8482 176.7276 0001689 316.3083 096.0887 01.00270724007337,27.8482,0.0001689,1.00270724,176.7276,316.3083,96.0887
36395,SDO,IGO,12024.43508005,1 36395U 10005A   12024.43508005 -.00000059 +00000-0 +00000-0 0 04288\,2 36395 027.8480 176.7116 0001691 316.2252 045.1196 01.00270690007349,27.848,0.0001691,1.0027069,176.7116,316.2252,45.1196
36395,SDO,IGO,12025.54114595,1 36395U 10005A   12025.54114595 -.00000056  00000-0  00000+0 0  4284\,2 36395 027.8479 176.6910 0001688 316.0122 084.6211 01.00270641  7351,27.8479,0.0001688,1.00270641,176.691,316.0122,84.6211
36395,SDO,IGO,12026.35048128,1 36395U 10005A   12026.35048128 -.00000052 +00000-0 +00000-0 0 04302\,2 36395 027.8477 176.6760 0001704 315.4160 017.3854 01.00270563007355,27.8477,0.0001704,1.00270563,176.676,315.416,17.3854
36395,SDO,IGO,12027.15362015,1 36395U 10005A   12027.15362015 -.00000047  00000-0  00000+0 0  4296\,2 36395 027.8477 176.6612 0001688 314.9725 307.7611 01.00270538  7363,27.8477,0.0001688,1.00270538,176.6612,314.9725,307.7611
36395,SDO,IGO,12028.39463196,1 36395U 10005A   12028.39463196 -.00000040  00000-0  00000+0 0  4300\,2 36395 027.8474 176.6381 0001688 315.2628 035.4739 01.00270481  7373,27.8474,0.0001688,1.00270481,176.6381,315.2628,35.4739
36395,SDO,IGO,12029.26227628,1 36395U 10005A   12029.26227628 -.00000036 +00000-0 +00000-0 0 04312\,2 36395 027.8473 176.6221 0001681 314.6564 349.2985 01.00270450007386,27.8473,0.0001681,1.0027045,176.6221,314.6564,349.2985
36395,SDO,IGO,12030.23029275,1 36395U 10005A   12030.23029275 -.00000034  00000-0  00000+0 0  4316\,2 36395 027.8473 176.6041 0001625 313.8579 339.5496 01.00270409  7395,27.8473,0.0001625,1.00270409,176.6041,313.8579,339.5496
36395,SDO,IGO,12030.30179044,1 36395U 10005A   12030.30179044 -.00000033 +00000-0 +00000-0 0 04325\,2 36395 027.8473 176.6027 0001625 313.7124 005.5056 01.00270407007394,27.8473,0.0001625,1.00270407,176.6027,313.7124,5.5056
36395,SDO,IGO,12031.40272589,1 36395U 10005A   12031.40272589 -.00000033  00000-0  00000+0 0  4324\,2 36395 027.8472 176.5823 0001601 313.5357 043.1181 01.00270368  7401,27.8472,0.0001601,1.00270368,176.5823,313.5357,43.1181
36395,SDO,IGO,12032.53012872,1 36395U 10005A   12032.53012872 -.00000035  00000-0  00000+0 0  4339\,2 36395 027.8471 176.5615 0001608 310.1321 093.5115 01.00270329  7425,27.8471,0.0001608,1.00270329,176.5615,310.1321,93.5115
36395,SDO,IGO,12033.46218385,1 36395U 10005A   12033.46218385 -.00000038 +00000-0 +00000-0 0 04366\,2 36395 027.8469 176.5443 0001613 309.9806 070.1329 01.00270296007433,27.8469,0.0001613,1.00270296,176.5443,309.9806,70.1329
36395,SDO,IGO,12034.07556611,1 36395U 10005A   12034.07556611 -.00000041  00000-0  00000+0 0  4342\,2 36395 027.8469 176.5329 0001598 310.6994 290.8440 01.00270275  7437,27.8469,0.0001598,1.00270275,176.5329,310.6994,290.844
36395,SDO,IGO,12034.43755896,1 36395U 10005A   12034.43755896 -.00000043 +00000-0 +00000-0 0 04352\,2 36395 027.8469 176.5263 0001603 310.8675 061.3546 01.00270263007445,27.8469,0.0001603,1.00270263,176.5263,310.8675,61.3546
36395,SDO,IGO,12035.09191588,1 36395U 10005A   12035.09191588 -.00000047  00000-0  00000+0 0  4350\,2 36395 027.8468 176.5142 0001597 311.0820 297.3614 01.00270237  7445,27.8468,0.0001597,1.00270237,176.5142,311.082,297.3614
36395,SDO,IGO,12035.43157435,1 36395U 10005A   12035.43157435 -.00000049 +00000-0 +00000-0 0 04376\,2 36395 027.8468 176.5080 0001608 311.1565 059.9031 01.00270230007455,27.8468,0.0001608,1.0027023,176.508,311.1565,59.9031
36395,SDO,IGO,12036.16346488,1 36395U 10005A   12036.16346488 -.00000053  00000-0  00000+0 0  4368\,2 36395 027.8468 176.4945 0001611 311.1327 324.1372 01.00270197  7451,27.8468,0.0001611,1.00270197,176.4945,311.1327,324.1372
36395,SDO,IGO,12036.33604098,1 36395U 10005A   12036.33604098 -.00000053 +00000-0 +00000-0 0 04373\,2 36395 027.8468 176.4913 0001613 310.9305 026.6389 01.00270192007458,27.8468,0.0001613,1.00270192,176.4913,310.9305,26.6389
36395,SDO,IGO,12037.37519828,1 36395U 10005A   12037.37519828 -.00000058  00000-0  00000+0 0  4378\,2 36395 027.8467 176.4722 0001628 310.4915 042.2102 01.00270144  7468,27.8467,0.0001628,1.00270144,176.4722,310.4915,42.2102
36395,SDO,IGO,12038.10630233,1 36395U 10005A   12038.10630233 -.00000060 +00000-0 +00000-0 0 04389\,2 36395 027.8466 176.4586 0001639 310.1367 306.4908 01.00270108007475,27.8466,0.0001639,1.00270108,176.4586,310.1367,306.4908
36395,SDO,IGO,12039.06232976,1 36395U 10005A   12039.06232976 -.00000061  00000-0  00000+0 0  4387\,2 36395 027.8465 176.4409 0001649 309.3980 292.3520 01.00270064  7485,27.8465,0.0001649,1.00270064,176.4409,309.398,292.352
36395,SDO,IGO,12039.33258373,1 36395U 10005A   12039.33258373 -.00000061 +00000-0 +00000-0 0 04398\,2 36395 027.8465 176.4360 0001646 309.5612 029.7494 01.00270051007480,27.8465,0.0001646,1.00270051,176.436,309.5612,29.7494
36395,SDO,IGO,12040.11136192,1 36395U 10005A   12040.11136192 -.00000060  00000-0  00000+0 0  4398\,2 36395 027.8464 176.4212 0001620 305.6296 314.8180 01.00270072  7496,27.8464,0.000162,1.00270072,176.4212,305.6296,314.818
36395,SDO,IGO,12040.49122046,1 36395U 10005A   12040.49122046 -.00000060 +00000-0 +00000-0 0 04405\,2 36395 027.8463 176.4142 0001618 305.0933 092.4818 01.00270053007504,27.8463,0.0001618,1.00270053,176.4142,305.0933,92.4818
36395,SDO,IGO,12041.13811963,1 36395U 10005A   12041.13811963 -.00000058  00000-0  00000+0 0  4406\,2 36395 027.8463 176.4021 0001622 306.3032 324.7991 01.00269993  7503,27.8463,0.0001622,1.00269993,176.4021,306.3032,324.7991
36395,SDO,IGO,12041.53597715,1 36395U 10005A   12041.53597715 -.00000057 +00000-0 +00000-0 0 04428\,2 36395 027.8463 176.3948 0001599 305.0317 109.6948 01.00269958007519,27.8463,0.0001599,1.00269958,176.3948,305.0317,109.6948
36395,SDO,IGO,12044.48921045,1 36395U 10005A   12044.48921045 -.00000056  00000-0  00000+0 0  4419\,2 36395 027.8465 176.3406 0001538 313.8436 086.9828 01.00269655  7543,27.8465,0.0001538,1.00269655,176.3406,313.8436,86.9828
36395,SDO,IGO,12045.53081118,1 36395U 10005A   12045.53081118 -.00000060  00000-0  00000+0 0  4420\,2 36395 027.8463 176.3213 0001633 315.0180 101.8174 01.00269509  7553,27.8463,0.0001633,1.00269509,176.3213,315.018,101.8174
